<?xml version="1.0"?>
<gpx version="1.1" creator="gpxgenerator.com">
<wpt lat="30.27442889578109" lon="-97.74935519042323">
    <ele>152.76</ele>
    <time>2024-07-08T22:27:35Z</time>
</wpt>
<wpt lat="30.27442715847279" lon="-97.74934781434844">
    <ele>152.88</ele>
    <time>2024-07-08T22:27:35Z</time>
</wpt>
<wpt lat="30.274424842061684" lon="-97.74934244993041">
    <ele>153.05</ele>
    <time>2024-07-08T22:27:35Z</time>
</wpt>
<wpt lat="30.274434976359935" lon="-97.74933708551238">
    <ele>152.97</ele>
    <time>2024-07-08T22:27:35Z</time>
</wpt>
<wpt lat="30.274450322581004" lon="-97.74933272692273">
    <ele>152.90</ele>
    <time>2024-07-08T22:27:36Z</time>
</wpt>
<wpt lat="30.274467695658583" lon="-97.74932635667632">
    <ele>152.74</ele>
    <time>2024-07-08T22:27:37Z</time>
</wpt>
<wpt lat="30.274480725464734" lon="-97.74932468029569">
    <ele>152.75</ele>
    <time>2024-07-08T22:27:38Z</time>
</wpt>
<wpt lat="30.2744763821962" lon="-97.74931629839251">
    <ele>152.75</ele>
    <time>2024-07-08T22:27:38Z</time>
</wpt>
<wpt lat="30.27447319713251" lon="-97.74930925759385">
    <ele>152.91</ele>
    <time>2024-07-08T22:27:38Z</time>
</wpt>
<wpt lat="30.274469722517438" lon="-97.7492998698623">
    <ele>152.98</ele>
    <time>2024-07-08T22:27:38Z</time>
</wpt>
<wpt lat="30.27446856431239" lon="-97.749291152683">
    <ele>153.05</ele>
    <time>2024-07-08T22:27:38Z</time>
</wpt>
<wpt lat="30.274465089697134" lon="-97.74928277077983">
    <ele>153.12</ele>
    <time>2024-07-08T22:27:38Z</time>
</wpt>
<wpt lat="30.27446219418435" lon="-97.74927070083926">
    <ele>153.26</ele>
    <time>2024-07-08T22:27:38Z</time>
</wpt>
<wpt lat="30.274459009120175" lon="-97.74926131310771">
    <ele>153.31</ele>
    <time>2024-07-08T22:27:38Z</time>
</wpt>
<wpt lat="30.27445177033759" lon="-97.74926231893609">
    <ele>153.39</ele>
    <time>2024-07-08T22:27:38Z</time>
</wpt>
<wpt lat="30.274442794246443" lon="-97.74926768335412">
    <ele>153.43</ele>
    <time>2024-07-08T22:27:38Z</time>
</wpt>
<wpt lat="30.27443729277081" lon="-97.74926835390637">
    <ele>153.43</ele>
    <time>2024-07-08T22:27:38Z</time>
</wpt>
<wpt lat="30.274429474883867" lon="-97.74927606525729">
    <ele>153.45</ele>
    <time>2024-07-08T22:27:38Z</time>
</wpt>
</gpx>
